NORAD_CAT_ID,OBJECT_NAME,OBJECT_TYPE,EPOCH,MEAN_MOTION,ECCENTRICITY,INCLINATION,RA_OF_ASC_NODE,ARG_OF_PERICENTER,MEAN_ANOMALY,BSTAR,MEAN_MOTION_DOT,MEAN_MOTION_DDOT,TLE_LINE0,TLE_LINE1,TLE_LINE2,SEMIMAJOR_AXIS,PERIOD,APOGEE,PERIGEE,DECAYED
53934.0,STARLINK-4775,PAYLOAD,2023-04-20 22:28:21,15.08841804,9.45e-05,53.2173,349.6514,76.3692,283.7405,0.00011961,1.616e-05,0.0,0 STARLINK-4775,1 53934U 22119BA  23110.93635889  .00001616  00000-0  11961-3 0  9992,2 53934  53.2173 349.6514 0000945  76.3692 283.7405 15.08841804 32979,6917.875,95.437,540.394,539.086,0.0
53934.0,STARLINK-4775,PAYLOAD,2023-04-21 22:19:08,15.08851069,0.0001061,53.2179,345.1928,66.7232,293.3872,5.7143e-05,6.22e-06,0.0,0 STARLINK-4775,1 53934U 22119BA  23111.92995411  .00000622  00000-0  57143-4 0  9991,2 53934  53.2179 345.1928 0001061  66.7232 293.3872 15.08851069 33125,6917.847,95.437,540.446,538.978,0.0
53934.0,STARLINK-4775,PAYLOAD,2023-04-22 17:23:45,15.08841762,0.0001131,53.218,341.6248,88.3184,271.7938,8.9028e-05,1.129e-05,0.0,0 STARLINK-4775,1 53934U 22119BA  23112.72483746  .00001129  00000-0  89028-4 0  9993,2 53934  53.2180 341.6248 0001131  88.3184 271.7938 15.08841762 32803,6917.875,95.437,540.522,538.958,0.0
53934.0,STARLINK-4775,PAYLOAD,2023-04-23 01:20:41,15.08846058,0.0001245,53.2182,340.1395,80.135,279.9783,0.0001274,1.741e-05,0.0,0 STARLINK-4775,1 53934U 22119BA  23113.05603484  .00001741  00000-0  12740-3 0  9999,2 53934  53.2182 340.1395 0001245  80.1350 279.9783 15.08846058 33298,6917.862,95.437,540.588,538.866,0.0
53934.0,STARLINK-4775,PAYLOAD,2023-04-23 17:14:32,15.08839282,0.0001162,53.2183,337.1631,90.667,269.4456,-8.6778e-06,-4.26e-06,0.0,0 STARLINK-4775,1 53934U 22119BA  23113.71843748 -.00000426  00000-0 -86778-5 0  9996,2 53934  53.2183 337.1631 0001162  90.6670 269.4456 15.08839282 33390,6917.883,95.438,540.551,538.944,0.0
53934.0,STARLINK-4775,PAYLOAD,2023-04-24 01:11:28,15.08846803,0.0001525,53.2181,335.6801,85.7971,274.3195,7.2465e-05,8.66e-06,0.0,0 STARLINK-4775,1 53934U 22119BA  23114.04963379  .00000866  00000-0  72465-4 0  9999,2 53934  53.2181 335.6801 0001525  85.7971 274.3195 15.08846803 33002,6917.86,95.437,540.78,538.67,0.0
53934.0,STARLINK-4775,PAYLOAD,2023-04-24 17:05:18,15.08871613,0.0001233,53.2187,332.7046,97.9645,262.1487,0.00051139,7.867e-05,0.0,0 STARLINK-4775,1 53934U 22119BA  23114.71201815  .00007867  00000-0  51139-3 0  9995,2 53934  53.2187 332.7046 0001233  97.9645 262.1487 15.08871613 33103,6917.784,95.436,540.502,538.796,0.0
53934.0,STARLINK-4775,PAYLOAD,2023-04-25 02:37:36,15.08884223,0.0001229,53.2175,330.9185,98.9557,261.1574,0.00074372,0.00011582,0.0,0 STARLINK-4775,1 53934U 22119BA  23115.10944857  .00011582  00000-0  74372-3 0  9992,2 53934  53.2175 330.9185 0001229  98.9557 261.1574 15.08884223 33604,6917.745,95.435,540.46,538.76,0.0
53934.0,STARLINK-4775,PAYLOAD,2023-04-26 02:28:27,15.08810642,0.0001358,53.2162,326.4576,95.4783,264.6364,-3.2973e-05,-8.12e-06,0.0,0 STARLINK-4775,1 53934U 22119BA  23116.10309081 -.00000812  00000-0 -32973-4 0  9995,2 53934  53.2162 326.4576 0001358  95.4783 264.6364 15.08810642 33317,6917.97,95.439,540.775,538.896,0.0
53934.0,STARLINK-4775,PAYLOAD,2023-04-26 05:39:13,15.08813483,9.63e-05,53.2182,325.8604,98.5932,261.517,0.00014143,1.962e-05,0.0,0 STARLINK-4775,1 53934U 22119BA  23116.23556844  .00001962  00000-0  14143-3 0  9993,2 53934  53.2182 325.8604 0000963  98.5932 261.5170 15.08813483 33772,6917.961,95.439,540.493,539.16,0.0
53934.0,STARLINK-4775,PAYLOAD,2023-04-26 19:57:41,15.08822355,0.0001336,53.2164,323.1858,87.1738,272.9407,0.00039691,6.032e-05,0.0,0 STARLINK-4775,1 53934U 22119BA  23116.83173198  .00006032  00000-0  39691-3 0  9994,2 53934  53.2164 323.1858 0001336  87.1738 272.9407 15.08822355 33864,6917.934,95.439,540.724,538.875,0.0
53934.0,STARLINK-4775,PAYLOAD,2023-04-27 13:26:56,15.08855592,0.0001347,53.2173,319.9144,79.1425,280.9719,0.0010651,0.00016711,0.0,0 STARLINK-4775,1 53934U 22119BA  23117.56037614  .00016711  00000-0  10651-2 0  9996,2 53934  53.2173 319.9144 0001347  79.1425 280.9719 15.08855592 33539,6917.833,95.437,540.63,538.766,0.0
53934.0,STARLINK-4775,PAYLOAD,2023-04-27 18:13:05,15.08873855,0.0001299,53.2168,319.0232,69.5726,290.5406,0.001103,0.00017326,0.0,0 STARLINK-4775,1 53934U 22119BA  23117.75908874  .00017326  00000-0  11030-2 0  9997,2 53934  53.2168 319.0232 0001299  69.5726 290.5406 15.08873855 33560,6917.777,95.435,540.541,538.743,0.0
53934.0,STARLINK-4775,PAYLOAD,2023-04-28 06:56:09,15.08865901,0.000167,53.2172,316.6454,75.6686,284.4492,0.00022859,3.354e-05,0.0,0 STARLINK-4775,1 53934U 22119BA  23118.28900177  .00003354  00000-0  22859-3 0  9992,2 53934  53.2172 316.6454 0001670  75.6686 284.4492 15.08865901 33649,6917.801,95.436,540.821,538.511,0.0
53934.0,STARLINK-4775,PAYLOAD,2023-04-28 19:39:14,15.08852979,0.0001261,53.217,314.2658,75.8226,284.2906,0.00020562,2.987e-05,0.0,0 STARLINK-4775,1 53934U 22119BA  23118.81892081  .00002987  00000-0  20562-3 0  9995,2 53934  53.2170 314.2658 0001261  75.8226 284.2906 15.08852979 33723,6917.841,95.437,540.578,538.833,0.0
53934.0,STARLINK-4775,PAYLOAD,2023-04-28 22:50:01,15.0885503,0.0001249,53.217,313.6711,76.9652,283.1479,0.00050557,7.771e-05,0.0,0 STARLINK-4775,1 53934U 22119BA  23118.95140051  .00007771  00000-0  50557-3 0  9996,2 53934  53.2170 313.6711 0001249  76.9652 283.1479 15.08855030 34182,6917.834,95.437,540.563,538.835,0.0
53934.0,STARLINK-4775,PAYLOAD,2023-04-29 16:19:15,15.08848862,0.0001116,53.2171,310.4002,86.1969,273.9151,0.0010155,0.00015915,0.0,0 STARLINK-4775,1 53934U 22119BA  23119.68004335  .00015915  00000-0  10155-2 0  9999,2 53934  53.2171 310.4002 0001116  86.1969 273.9151 15.08848862 33850,6917.853,95.437,540.49,538.946,0.0
53934.0,STARLINK-4775,PAYLOAD,2023-04-29 22:40:48,15.08849584,0.000138,53.2174,309.2101,83.0825,277.0324,0.00047465,7.276e-05,0.0,0 STARLINK-4775,1 53934U 22119BA  23119.94500178  .00007276  00000-0  47465-3 0  9990,2 53934  53.2174 309.2101 0001380  83.0825 277.0324 15.08849584 33892,6917.851,95.437,540.671,538.761,0.0
53934.0,STARLINK-4775,PAYLOAD,2023-04-30 19:20:49,15.08842905,0.0001227,53.217,305.345,88.7526,271.3607,0.00015038,2.106e-05,0.0,0 STARLINK-4775,1 53934U 22119BA  23120.80612303  .00002106  00000-0  15038-3 0  9999,2 53934  53.2170 305.3450 0001227  88.7526 271.3607 15.08842905 34029,6917.872,95.437,540.585,538.888,0.0
53934.0,STARLINK-4775,PAYLOAD,2023-05-01 12:50:03,15.08839792,0.0001364,53.2176,302.0736,105.2076,254.9067,-3.9784e-08,-2.89e-06,0.0,0 STARLINK-4775,1 53934U 22119BA  23121.53476408 -.00000289  00000-0 -39784-7 0  9994,2 53934  53.2176 302.0736 0001364 105.2076 254.9067 15.08839792 34570,6917.881,95.438,540.69,538.802,0.0
53934.0,STARLINK-4775,PAYLOAD,2023-05-01 17:36:13,15.0883753,0.000117,53.2171,301.1819,92.8338,267.2788,-1.0401e-05,-4.53e-06,0.0,0 STARLINK-4775,1 53934U 22119BA  23121.73348595 -.00000453  00000-0 -10401-4 0  9996,2 53934  53.2171 301.1819 0001170  92.8338 267.2788 15.08837530 34164,6917.888,95.438,540.562,538.944,0.0
53934.0,STARLINK-4775,PAYLOAD,2023-05-02 11:05:27,15.0883988,0.0001108,53.217,297.9108,88.5336,271.5783,0.00015401,2.164e-05,0.0,0 STARLINK-4775,1 53934U 22119BA  23122.46212768  .00002164  00000-0  15401-3 0  9992,2 53934  53.2170 297.9108 0001108  88.5336 271.5783 15.08839880 34711,6917.881,95.438,540.512,538.979,0.0
53934.0,STARLINK-4775,PAYLOAD,2023-05-02 19:02:23,15.08845829,0.0001071,53.2171,296.4267,88.4989,271.6126,0.00016824,2.391e-05,0.0,0 STARLINK-4775,1 53934U 22119BA  23122.79332437  .00002391  00000-0  16824-3 0  9996,2 53934  53.2171 296.4267 0001071  88.4989 271.6126 15.08845829 34323,6917.863,95.437,540.468,538.987,0.0
53934.0,STARLINK-4775,PAYLOAD,2023-05-03 04:34:42,15.08836737,0.0001057,53.2178,294.6432,92.5592,267.5521,2.8259e-05,1.62e-06,0.0,0 STARLINK-4775,1 53934U 22119BA  23123.19076765  .00000162  00000-0  28259-4 0  9990,2 53934  53.2178 294.6432 0001057  92.5592 267.5521 15.08836737 34381,6917.89,95.438,540.487,539.024,0.0
53934.0,STARLINK-4775,PAYLOAD,2023-05-03 10:56:14,15.08837108,0.0001064,53.2169,293.4526,89.3088,270.8026,6.5849e-05,7.6e-06,0.0,0 STARLINK-4775,1 53934U 22119BA  23123.45572842  .00000760  00000-0  65849-4 0  9996,2 53934  53.2169 293.4526 0001064  89.3088 270.8026 15.08837108 34867,6917.889,95.438,540.49,539.018,0.0
53934.0,STARLINK-4775,PAYLOAD,2023-05-03 18:53:10,15.0884098,0.0001128,53.2169,291.9656,85.2373,274.8748,0.00011648,1.566e-05,0.0,0 STARLINK-4775,1 53934U 22119BA  23123.78692805  .00001566  00000-0  11648-3 0  9996,2 53934  53.2169 291.9656 0001128  85.2373 274.8748 15.08840980 34910,6917.877,95.437,540.523,538.962,0.0
53934.0,STARLINK-4775,PAYLOAD,2023-05-04 10:47:02,15.08837634,0.0001077,53.2159,288.9896,79.5997,280.5117,6.5363e-05,7.53e-06,0.0,0 STARLINK-4775,1 53934U 22119BA  23124.44933034  .00000753  00000-0  65363-4 0  9993,2 53934  53.2159 288.9896 0001077  79.5997 280.5117 15.08837634 34570,6917.888,95.438,540.498,539.008,0.0
53934.0,STARLINK-4775,PAYLOAD,2023-05-04 20:19:20,15.08848798,0.0001106,53.2168,287.2057,82.465,277.6468,0.00015998,2.26e-05,0.0,0 STARLINK-4775,1 53934U 22119BA  23124.84676550  .00002260  00000-0  15998-3 0  9997,2 53934  53.2168 287.2057 0001106  82.4650 277.6468 15.08848798 35078,6917.853,95.437,540.484,538.953,0.0
53934.0,STARLINK-4775,PAYLOAD,2023-05-05 10:37:49,15.08830835,0.0001338,53.2174,284.5327,77.0748,283.0393,0.00031449,4.719e-05,0.0,0 STARLINK-4775,1 53934U 22119BA  23125.44293902  .00004719  00000-0  31449-3 0  9990,2 53934  53.2174 284.5327 0001338  77.0748 283.0393 15.08830835 34722,6917.908,95.438,540.699,538.848,0.0
53934.0,STARLINK-4775,PAYLOAD,2023-05-05 18:34:45,15.08841252,0.0001137,53.2166,283.0418,91.7178,268.3945,0.00011294,1.51e-05,0.0,0 STARLINK-4775,1 53934U 22119BA  23125.77413195  .00001510  00000-0  11294-3 0  9996,2 53934  53.2166 283.0418 0001137  91.7178 268.3945 15.08841252 34774,6917.877,95.437,540.528,538.955,0.0
